[{"OBJECT_NAME":"GUANGCHUAN 02","OBJECT_ID":"2024-221B","EPOCH":"2026-03-09T22:15:41.335200","MEAN_MOTION":15.16931464,"ECCENTRICITY":0.00066009,"INCLINATION":49.9417,"RA_OF_ASC_NODE":285.1157,"ARG_OF_PERICENTER":306.8917,"MEAN_ANOMALY":53.1429,"EPHEMERIS_TYPE":0,"CLASSIFICATION_TYPE":"U","NORAD_CAT_ID":62112,"ELEMENT_SET_NO":999,"REV_AT_EPOCH":7113,"BSTAR":0.00030203163,"MEAN_MOTION_DOT":5.737e-5,"MEAN_MOTION_DDOT":0},{"OBJECT_NAME":"DELTA 1 DEB","OBJECT_ID":"1977-065FJ","EPOCH":"2026-03-09T02:59:41.576928","MEAN_MOTION":13.94627444,"ECCENTRICITY":0.05598795,"INCLINATION":28.9482,"RA_OF_ASC_NODE":40.0811,"ARG_OF_PERICENTER":161.2588,"MEAN_ANOMALY":200.9498,"EPHEMERIS_TYPE":0,"CLASSIFICATION_TYPE":"U","NORAD_CAT_ID":14493,"ELEMENT_SET_NO":999,"REV_AT_EPOCH":21829,"BSTAR":0.00040569536,"MEAN_MOTION_DOT":2.247e-5,"MEAN_MOTION_DDOT":0}]
